NORAD_CAT_ID,OBJECT_NAME,OBJECT_TYPE,EPOCH,MEAN_MOTION,ECCENTRICITY,INCLINATION,RA_OF_ASC_NODE,ARG_OF_PERICENTER,MEAN_ANOMALY,BSTAR,MEAN_MOTION_DOT,MEAN_MOTION_DDOT,TLE_LINE0,TLE_LINE1,TLE_LINE2,SEMIMAJOR_AXIS,PERIOD,APOGEE,PERIGEE,DECAYED
52695.0,STARLINK-4041,PAYLOAD,2023-03-07 04:24:45,15.08850172,6.98e-05,53.2153,40.5075,49.3788,310.7265,0.0023214,0.00036861,0.0,0 STARLINK-4041,1 52695U 22053AR  23066.18385800  .00036861  00000-0  23214-2 0  9997,2 52695  53.2153  40.5075 0000698  49.3788 310.7265 15.08850172 44842,6917.849,95.437,540.197,539.231,0.0
52695.0,STARLINK-4041,PAYLOAD,2023-03-07 15:32:27,15.08851579,0.0001452,53.2157,38.4254,70.4739,289.641,0.0016944,0.0002679,0.0,0 STARLINK-4041,1 52695U 22053AR  23066.64754090  .00026790  00000-0  16944-2 0  9991,2 52695  53.2157  38.4254 0001452  70.4739 289.6410 15.08851579 44917,6917.845,95.437,540.714,538.706,0.0
52695.0,STARLINK-4041,PAYLOAD,2023-03-07 21:54:00,15.08844898,0.0001633,53.2153,37.2363,72.3757,287.7414,0.00094538,0.00014792,0.0,0 STARLINK-4041,1 52695U 22053AR  23066.91250198  .00014792  00000-0  94538-3 0  9996,2 52695  53.2153  37.2363 0001633  72.3757 287.7414 15.08844898 45362,6917.865,95.437,540.86,538.601,0.0
52695.0,STARLINK-4041,PAYLOAD,2023-03-08 04:15:32,15.08860889,0.0001523,53.2163,36.045,87.1212,272.9954,0.0018297,0.00028968,0.0,0 STARLINK-4041,1 52695U 22053AR  23067.17746040  .00028968  00000-0  18297-2 0  9998,2 52695  53.2163  36.0450 0001523  87.1212 272.9954 15.08860889 44996,6917.817,95.436,540.735,538.628,0.0
52695.0,STARLINK-4041,PAYLOAD,2023-03-08 15:23:14,15.08865716,0.0001492,53.2168,33.9654,77.5977,282.5182,0.0016068,0.00025395,0.0,0 STARLINK-4041,1 52695U 22053AR  23067.64113750  .00025395  00000-0  16068-2 0  9991,2 52695  53.2168  33.9654 0001492  77.5977 282.5182 15.08865716 45062,6917.802,95.436,540.699,538.635,0.0
52695.0,STARLINK-4041,PAYLOAD,2023-03-08 21:44:47,15.08861369,0.0002172,53.2169,32.7746,90.0436,270.0805,0.0018793,0.00029766,0.0,0 STARLINK-4041,1 52695U 22053AR  23067.90610043  .00029766  00000-0  18793-2 0  9990,2 52695  53.2169  32.7746 0002172  90.0436 270.0805 15.08861369 45512,6917.815,95.436,541.183,538.178,0.0
52695.0,STARLINK-4041,PAYLOAD,2023-03-09 04:06:19,15.08872249,0.0001431,53.2177,31.5865,93.7406,266.375,0.0014402,0.00022727,0.0,0 STARLINK-4041,1 52695U 22053AR  23068.17105458  .00022727  00000-0  14402-2 0  9992,2 52695  53.2177  31.5865 0001431  93.7406 266.3750 15.08872249 45149,6917.782,95.436,540.637,538.657,0.0
52695.0,STARLINK-4041,PAYLOAD,2023-03-09 21:35:33,15.08876835,0.0001244,53.2163,28.3144,95.1423,264.9711,0.001772,0.00028054,0.0,0 STARLINK-4041,1 52695U 22053AR  23068.89968849  .00028054  00000-0  17720-2 0  9997,2 52695  53.2163  28.3144 0001244  95.1423 264.9711 15.08876835 45668,6917.768,95.435,540.493,538.772,0.0
52695.0,STARLINK-4041,PAYLOAD,2023-03-10 02:21:41,15.08889007,0.0001167,53.2165,27.4223,93.5658,266.5467,0.0019111,0.00030299,0.0,0 STARLINK-4041,1 52695U 22053AR  23069.09840248  .00030299  00000-0  19111-2 0  9992,2 52695  53.2165  27.4223 0001167  93.5658 266.5467 15.08889007 45283,6917.731,95.434,540.403,538.788,0.0
52695.0,STARLINK-4041,PAYLOAD,2023-03-10 13:29:23,15.08859545,0.0001122,53.2168,25.3415,88.5986,271.5135,0.00012128,1.644e-05,0.0,0 STARLINK-4041,1 52695U 22053AR  23069.56208080  .00001644  00000-0  12128-3 0  9990,2 52695  53.2168  25.3415 0001122  88.5986 271.5135 15.08859545 45355,6917.821,95.436,540.462,538.909,0.0
52695.0,STARLINK-4041,PAYLOAD,2023-03-11 03:47:52,15.08827708,0.000143,53.2181,22.6708,129.4185,230.6933,-0.00010627,-1.978e-05,0.0,0 STARLINK-4041,1 52695U 22053AR  23070.15825044 -.00001978  00000-0 -10627-3 0  9996,2 52695  53.2181  22.6708 0001430 129.4185 230.6933 15.08827708 45441,6917.918,95.438,540.772,538.794,0.0
52695.0,STARLINK-4041,PAYLOAD,2023-03-11 06:58:39,15.08837869,0.000116,53.2177,22.0725,120.4455,239.6651,0.0028505,0.00045367,0.0,0 STARLINK-4041,1 52695U 22053AR  23070.29073454  .00045367  00000-0  28505-2 0  9992,2 52695  53.2177  22.0725 0001160 120.4455 239.6651 15.08837869 45467,6917.887,95.438,540.554,538.949,0.0
52695.0,STARLINK-4041,PAYLOAD,2023-03-12 06:49:27,15.08854365,0.0001085,53.2169,17.61,116.3087,243.8016,0.0017614,0.00027867,0.0,0 STARLINK-4041,1 52695U 22053AR  23071.28434331  .00027867  00000-0  17614-2 0  9991,2 52695  53.2169  17.6100 0001085 116.3087 243.8016 15.08854365 45615,6917.836,95.437,540.452,538.951,0.0
52695.0,STARLINK-4041,PAYLOAD,2023-03-13 05:04:50,15.08857989,9.03e-05,53.2167,13.4486,105.3467,254.7625,0.00079351,0.0001237,0.0,0 STARLINK-4041,1 52695U 22053AR  23072.21169999  .00012370  00000-0  79351-3 0  9990,2 52695  53.2167  13.4486 0000903 105.3467 254.7625 15.08857989 45759,6917.825,95.436,540.315,539.066,0.0
52695.0,STARLINK-4041,PAYLOAD,2023-03-14 04:55:38,15.08844026,9.71e-05,53.2165,8.9879,105.987,254.1229,0.00035705,5.4e-05,0.0,0 STARLINK-4041,1 52695U 22053AR  23073.20530382  .00005400  00000-0  35705-3 0  9999,2 52695  53.2165   8.9879 0000971 105.9870 254.1229 15.08844026 45900,6917.868,95.437,540.405,539.061,0.0
52695.0,STARLINK-4041,PAYLOAD,2023-03-14 12:52:34,15.08842499,8.87e-05,53.2165,7.5017,88.9579,271.1514,0.00039612,6.023e-05,0.0,0 STARLINK-4041,1 52695U 22053AR  23073.53650645  .00006023  00000-0  39612-3 0  9993,2 52695  53.2165   7.5017 0000887  88.9579 271.1514 15.08842499 46360,6917.873,95.437,540.351,539.124,0.0
52695.0,STARLINK-4041,PAYLOAD,2023-03-15 04:46:25,15.08867235,0.0001209,53.2156,4.5244,94.8316,265.2815,0.0017806,0.00028185,0.0,0 STARLINK-4041,1 52695U 22053AR  23074.19890109  .00028185  00000-0  17806-2 0  9990,2 52695  53.2156   4.5244 0001209  94.8316 265.2815 15.08867235 46052,6917.797,95.436,540.499,538.826,0.0
52695.0,STARLINK-4041,PAYLOAD,2023-03-16 01:26:25,15.08859387,0.0001472,53.2157,0.6604,104.1104,256.0052,0.00068807,0.00010685,0.0,0 STARLINK-4041,1 52695U 22053AR  23075.06001949  .00010685  00000-0  68807-3 0  9997,2 52695  53.2157   0.6604 0001472 104.1104 256.0052 15.08859387 46186,6917.821,95.436,540.704,538.668,0.0
52695.0,STARLINK-4041,PAYLOAD,2023-03-16 06:12:34,15.08877534,0.000148,53.2162,359.7704,96.5473,263.5688,0.0016986,0.00026877,0.0,0 STARLINK-4041,1 52695U 22053AR  23075.25873731  .00026877  00000-0  16986-2 0  9994,2 52695  53.2162 359.7704 0001480  96.5473 263.5688 15.08877534 46219,6917.766,95.435,540.654,538.607,0.0
52695.0,STARLINK-4041,PAYLOAD,2023-03-16 18:55:41,15.08812517,0.0001799,53.2167,357.3885,94.0675,266.0523,0.0015171,0.00023921,0.0,0 STARLINK-4041,1 52695U 22053AR  23075.78867243  .00023921  00000-0  15171-2 0  9995,2 52695  53.2167 357.3885 0001799  94.0675 266.0523 15.08812517 46292,6917.964,95.439,541.074,538.585,0.0
52695.0,STARLINK-4041,PAYLOAD,2023-03-17 04:28:00,15.08826761,0.0001443,53.2168,355.6062,80.054,280.0615,0.0013796,0.00021729,0.0,0 STARLINK-4041,1 52695U 22053AR  23076.18611701  .00021729  00000-0  13796-2 0  9991,2 52695  53.2168 355.6062 0001443  80.0540 280.0615 15.08826761 46769,6917.921,95.438,540.784,538.788,0.0
52695.0,STARLINK-4041,PAYLOAD,2023-03-17 18:46:28,15.08847868,0.0001672,53.217,352.9295,113.5235,246.5933,0.0012369,0.00019456,0.0,0 STARLINK-4041,1 52695U 22053AR  23076.78227705  .00019456  00000-0  12369-2 0  9993,2 52695  53.2170 352.9295 0001672 113.5235 246.5933 15.08847868 46443,6917.856,95.437,540.878,538.565,0.0
52695.0,STARLINK-4041,PAYLOAD,2023-03-18 04:18:47,15.08873278,0.0001563,53.2169,351.1462,70.9674,289.1487,0.0015168,0.00023956,0.0,0 STARLINK-4041,1 52695U 22053AR  23077.17971201  .00023956  00000-0  15168-2 0  9994,2 52695  53.2169 351.1462 0001563  70.9674 289.1487 15.08873278 46508,6917.779,95.435,540.725,538.562,0.0
52695.0,STARLINK-4041,PAYLOAD,2023-03-18 21:48:01,15.08854741,0.000123,53.2164,347.8753,76.7613,283.3516,0.0010504,0.00016475,0.0,0 STARLINK-4041,1 52695U 22053AR  23077.90835138  .00016475  00000-0  10504-2 0  9990,2 52695  53.2164 347.8753 0001230  76.7613 283.3516 15.08854741 47027,6917.835,95.437,540.551,538.849,0.0
52695.0,STARLINK-4041,PAYLOAD,2023-03-19 04:09:33,15.08869098,0.0001244,53.2166,346.6861,84.2521,275.8613,0.0015325,0.00024205,0.0,0 STARLINK-4041,1 52695U 22053AR  23078.17330658  .00024205  00000-0  15325-2 0  9993,2 52695  53.2166 346.6861 0001244  84.2521 275.8613 15.08869098 46656,6917.791,95.436,540.517,538.796,0.0
52695.0,STARLINK-4041,PAYLOAD,2023-03-19 10:31:06,15.08842937,0.0001952,53.2166,345.4945,83.5247,276.5967,0.00096987,0.00015182,0.0,0 STARLINK-4041,1 52695U 22053AR  23078.43827300  .00015182  00000-0  96987-3 0  9995,2 52695  53.2166 345.4945 0001952  83.5247 276.5967 15.08842937 46696,6917.871,95.437,541.087,538.386,0.0
52695.0,STARLINK-4041,PAYLOAD,2023-03-19 21:38:48,15.088416,0.0001671,53.2171,343.4152,100.0173,260.1008,0.00092297,0.00014432,0.0,0 STARLINK-4041,1 52695U 22053AR  23078.90195289  .00014432  00000-0  92297-3 0  9998,2 52695  53.2171 343.4152 0001671 100.0173 260.1008 15.08841600 47176,6917.875,95.437,540.896,538.585,0.0
52695.0,STARLINK-4041,PAYLOAD,2023-03-20 04:00:21,15.08852729,0.0001488,53.2162,342.2269,104.802,255.3137,0.0013977,0.00022034,0.0,0 STARLINK-4041,1 52695U 22053AR  23079.16691051  .00022034  00000-0  13977-2 0  9999,2 52695  53.2162 342.2269 0001488 104.8020 255.3137 15.08852729 46803,6917.841,95.437,540.736,538.677,0.0
52695.0,STARLINK-4041,PAYLOAD,2023-03-21 02:15:44,15.088594,0.0001385,53.2157,338.0611,113.5138,246.6,0.00092904,0.00014536,0.0,0 STARLINK-4041,1 52695U 22053AR  23080.09426840  .00014536  00000-0  92904-3 0  9991,2 52695  53.2157 338.0611 0001385 113.5138 246.6000 15.08859400 46944,6917.821,95.436,540.644,538.728,0.0
52695.0,STARLINK-4041,PAYLOAD,2023-03-22 02:06:31,15.08848621,0.0001324,53.2152,333.6017,106.9314,253.1824,0.00049639,7.623e-05,0.0,0 STARLINK-4041,1 52695U 22053AR  23081.08786949  .00007623  00000-0  49639-3 0  9996,2 52695  53.2152 333.6017 0001324 106.9314 253.1824 15.08848621 47092,6917.854,95.437,540.635,538.803,0.0
